[{"OBJECT_NAME":"STARLINK-2476","OBJECT_ID":"2021-027AU","EPOCH":"2026-03-09T12:39:01.510848","MEAN_MOTION":15.30213621,"ECCENTRICITY":0.00017332,"INCLINATION":53.1609,"RA_OF_ASC_NODE":166.028,"ARG_OF_PERICENTER":85.9786,"MEAN_ANOMALY":274.1413,"EPHEMERIS_TYPE":0,"CLASSIFICATION_TYPE":"U","NORAD_CAT_ID":48134,"ELEMENT_SET_NO":999,"REV_AT_EPOCH":27248,"BSTAR":-8.465277e-6,"MEAN_MOTION_DOT":-6.1e-6,"MEAN_MOTION_DDOT":0},{"OBJECT_NAME":"FREGAT DEB","OBJECT_ID":"2011-037NP","EPOCH":"2026-03-04T10:37:24.073536","MEAN_MOTION":11.29539102,"ECCENTRICITY":0.18874903,"INCLINATION":51.4119,"RA_OF_ASC_NODE":94.1703,"ARG_OF_PERICENTER":115.556,"MEAN_ANOMALY":265.207,"EPHEMERIS_TYPE":0,"CLASSIFICATION_TYPE":"U","NORAD_CAT_ID":47332,"ELEMENT_SET_NO":999,"REV_AT_EPOCH":21212,"BSTAR":0.00027671275,"MEAN_MOTION_DOT":1.141e-5,"MEAN_MOTION_DDOT":0}]
